      2.10          N: GNSS NAV DATA                        RINEX VERSION / TYPE
fic2rin                                 05/19/2021 00:17:07 PGM / RUN BY / DATE
                                                            END OF HEADER
 3 21  5 18 16  0  0.0-1.674075610936e-04-1.034550223267e-11 0.000000000000e+00
    4.400000000000e+01-9.446875000000e+01 4.144101189877e-09-1.376214187016e+00
   -4.937872290611e-06 3.507712390274e-03 7.260590791702e-06 5.153599853516e+03
    2.304000000000e+05 1.844018697739e-07-2.274225781421e+00-2.421438694000e-08
    9.692024531839e-01 2.457500000000e+02 8.331318812527e-01-7.877470985429e-09
   -9.714690370133e-11 1.000000000000e+00 2.158000000000e+03 0.000000000000e+00
    2.400000000000e+00 0.000000000000e+00 1.862645149231e-09 4.400000000000e+01
    2.232000000000e+05 4.000000000000e+00
 4 21  5 18 16  0  0.0-1.967577263713e-04-1.477928890381e-12 0.000000000000e+00
    1.850000000000e+02-1.978125000000e+01 4.427327273095e-09 1.297506272904e+00
   -9.685754776001e-07 1.220873324201e-03 8.877366781235e-06 5.153743535995e+03
    2.304000000000e+05-2.980232238770e-08-1.193448375961e+00 3.352761268616e-08
    9.601358750217e-01 2.086875000000e+02-2.924591142103e+00-7.825683113970e-09
    3.132273328900e-10 1.000000000000e+00 2.158000000000e+03 0.000000000000e+00
    2.400000000000e+00 0.000000000000e+00-4.190951585770e-09 9.530000000000e+02
    2.232000000000e+05 4.000000000000e+00
10 21  5 18 16  0  0.0-1.244824379683e-04-7.617018127348e-12 0.000000000000e+00
    2.800000000000e+01-9.284375000000e+01 4.028024926263e-09-2.359123050304e+00
   -4.785135388374e-06 6.611445220187e-03 8.083879947662e-06 5.153678136826e+03
    2.304000000000e+05-2.235174179077e-08-2.277114185895e+00-3.166496753693e-08
    9.690831551404e-01 2.270625000000e+02-2.561259881909e+00-7.761037564081e-09
    4.821629411647e-11 1.000000000000e+00 2.158000000000e+03 0.000000000000e+00
    2.400000000000e+00 0.000000000000e+00 2.328306436539e-09 2.800000000000e+01
    2.232000000000e+05 4.000000000000e+00
 9 21  5 18 16  0  0.0-3.462256863713e-04-2.273736754432e-12 0.000000000000e+00
    2.800000000000e+01-2.503125000000e+01 4.534474593353e-09 2.328757395784e+00
   -1.208856701851e-06 1.860026502982e-03 8.789822459221e-06 5.153781208038e+03
    2.304000000000e+05 3.539025783539e-08-1.244228350076e+00 6.891787052155e-08
    9.529783259553e-01 2.060000000000e+02 1.832090091095e+00-7.854970048174e-09
    3.292994309288e-10 1.000000000000e+00 2.158000000000e+03 0.000000000000e+00
    2.400000000000e+00 0.000000000000e+00 1.396983861923e-09 2.800000000000e+01
    2.232000000000e+05 4.000000000000e+00
 8 21  5 18 16  0  0.0-2.168351784348e-05-1.477928890381e-12 0.000000000000e+00
    3.700000000000e+01 7.471875000000e+01 4.417684014271e-09 1.915033091604e+00
    4.099681973457e-06 6.346987327561e-03 7.102265954018e-06 5.153604467392e+03
    2.304000000000e+05 1.676380634308e-08 1.897033812764e+00 1.732259988785e-07
    9.672441500813e-01 2.457812500000e+02 4.921238278471e-02-8.098194465162e-09
   -5.714523747137e-11 1.000000000000e+00 2.158000000000e+03 0.000000000000e+00
    2.400000000000e+00 0.000000000000e+00 5.122274160385e-09 3.700000000000e+01
    2.232000000000e+05 4.000000000000e+00
12 21  5 18 16  0  0.0-4.279846325517e-05-5.115907697473e-12 0.000000000000e+00
    8.300000000000e+01 4.846875000000e+01 4.290893018632e-09-1.671478158449e+00
    2.671033143997e-06 8.440932608210e-03 8.041039109230e-06 5.153743131638e+03
    2.304000000000e+05 1.750886440277e-07 9.384563507253e-01 1.192092895508e-07
    9.737792640779e-01 2.318125000000e+02 1.215652448553e+00-7.756037355802e-09
   -1.675069773380e-10 1.000000000000e+00 2.158000000000e+03 0.000000000000e+00
    2.400000000000e+00 0.000000000000e+00-1.257285475731e-08 8.300000000000e+01
    2.232000000000e+05 4.000000000000e+00
 6 21  5 18 16  0  0.0 1.703761518002e-05 3.865352482535e-12 0.000000000000e+00
    1.170000000000e+02-2.453125000000e+01 4.029810714934e-09-1.027613448339e-01
   -1.244246959686e-06 2.218177309260e-03 3.809109330177e-06 5.153766056061e+03
    2.304000000000e+05-3.725290298462e-09 2.963459393533e+00-3.725290298462e-09
    9.840148600772e-01 3.199375000000e+02-9.700959113829e-01-8.024619971918e-09
   -7.214586230761e-11 1.000000000000e+00 2.158000000000e+03 0.000000000000e+00
    2.400000000000e+00 0.000000000000e+00 4.190951585770e-09 1.170000000000e+02
    2.232000000000e+05 4.000000000000e+00
 7 21  5 18 16  0  0.0 1.543667167425e-04 1.057287590811e-11 0.000000000000e+00
    7.400000000000e+01 2.159375000000e+01 4.975564395086e-09-9.063625598558e-01
    1.428648829460e-06 1.491110865027e-02 6.567686796188e-06 5.153752180099e+03
    2.304000000000e+05 2.104789018631e-07-1.716951653242e-01 2.626329660416e-07
    9.519837493958e-01 2.457812500000e+02-2.333962606065e+00-8.246414924853e-09
    8.428922527028e-11 1.000000000000e+00 2.158000000000e+03 0.000000000000e+00
    2.400000000000e+00 0.000000000000e+00-1.117587089539e-08 7.400000000000e+01
    2.232000000000e+05 4.000000000000e+00
29 21  5 18 16  0  0.0-3.491877578199e-04-6.480149750132e-12 0.000000000000e+00
    6.000000000000e+00 6.609375000000e+01 4.041596920163e-09 2.027382405918e+00
    3.458932042122e-06 1.849225722253e-03 5.604699254036e-06 5.153641983032e+03
    2.304000000000e+05 3.539025783539e-08 1.987356069037e+00-5.960464477539e-08
    9.838969298621e-01 2.795937500000e+02 2.137718578182e+00-7.914972547519e-09
   -5.107355599004e-11 1.000000000000e+00 2.158000000000e+03 0.000000000000e+00
    2.400000000000e+00 0.000000000000e+00-9.778887033463e-09 6.000000000000e+00
    2.232000000000e+05 4.000000000000e+00
30 21  5 18 16  0  0.0-4.276940599084e-04-4.888534022029e-12 0.000000000000e+00
    1.400000000000e+01 1.837500000000e+01 5.265219317519e-09-1.063020672586e+00
    9.071081876755e-07 5.213798722252e-03 6.288290023804e-06 5.153698385239e+03
    2.304000000000e+05 8.195638656616e-08-1.543999889564e-01 1.862645149231e-09
    9.372023929387e-01 2.405312500000e+02-2.782447347689e+00-8.345704774960e-09
    1.028614274485e-10 1.000000000000e+00 2.158000000000e+03 0.000000000000e+00
    2.400000000000e+00 0.000000000000e+00 3.725290298462e-09 1.400000000000e+01
    2.232000000000e+05 4.000000000000e+00
31 21  5 18 16  0  0.0-1.180060207844e-04-2.160049916711e-12 0.000000000000e+00
    6.100000000000e+01 1.812500000000e+01 4.830558355002e-09-1.473024543488e+00
    6.444752216339e-07 9.929794352502e-03 6.696209311485e-06 5.153781955719e+03
    2.304000000000e+05 5.029141902924e-08-1.546867603988e-01-1.508742570877e-07
    9.563063358488e-01 2.425625000000e+02 2.617255123867e-01-8.034620388475e-09
    1.450060400836e-10 1.000000000000e+00 2.158000000000e+03 0.000000000000e+00
    2.400000000000e+00 0.000000000000e+00-1.303851604462e-08 6.100000000000e+01
    2.232000000000e+05 4.000000000000e+00
27 21  5 18 16  0  0.0-1.322147436440e-04-6.480149750132e-12 0.000000000000e+00
    4.400000000000e+01 8.150000000000e+01 4.258034507086e-09 1.842570616153e+00
    4.179775714874e-06 9.434181614779e-03 7.068738341331e-06 5.153686719894e+03
    2.304000000000e+05-2.421438694000e-07 1.914218026796e+00 7.636845111847e-08
    9.758249648324e-01 2.528125000000e+02 6.230216735935e-01-8.004261981068e-09
   -7.143154683922e-12 1.000000000000e+00 2.158000000000e+03 0.000000000000e+00
    2.400000000000e+00 0.000000000000e+00 1.862645149231e-09 4.400000000000e+01
    2.232000000000e+05 4.000000000000e+00
19 21  5 18 16  0  0.0 1.682434231043e-06 5.002220859751e-12 0.000000000000e+00
    4.400000000000e+01 6.471875000000e+01 4.030882188137e-09-1.928383692235e+00
    3.578141331673e-06 9.276691591367e-03 5.854293704033e-06 5.153636737823e+03
    2.304000000000e+05-5.587935447693e-09 2.020089589594e+00 1.955777406693e-07
    9.805738558542e-01 2.779375000000e+02 1.835142715437e+00-7.817468486084e-09
    1.071473202588e-12 1.000000000000e+00 2.158000000000e+03 0.000000000000e+00
    2.400000000000e+00 0.000000000000e+00-1.536682248116e-08 4.400000000000e+01
    2.232000000000e+05 4.000000000000e+00
21 21  5 18 16  0  0.0 1.190071925521e-04 2.614797267597e-12 0.000000000000e+00
    2.200000000000e+01-1.812500000000e+00 4.625192657839e-09 2.035698264261e+00
   -1.620501279831e-07 2.408041467424e-02 2.035871148109e-06 5.153691175461e+03
    2.304000000000e+05 2.942979335785e-07 2.888236454573e+00-3.725290298462e-09
    9.573513274912e-01 3.264062500000e+02-1.138401714955e+00-8.067121742287e-09
   -2.685826161155e-10 1.000000000000e+00 2.158000000000e+03 0.000000000000e+00
    2.400000000000e+00 0.000000000000e+00-1.024454832077e-08 2.200000000000e+01
    2.232000000000e+05 4.000000000000e+00
13 21  5 18 16  0  0.0 1.336121931672e-04 4.774847184308e-12 0.000000000000e+00
    3.200000000000e+01-4.718750000000e+00 4.343038047824e-09 1.308828723410e+00
   -3.129243850708e-07 4.956380813383e-03 8.657574653625e-06 5.153679853439e+03
    2.304000000000e+05-8.381903171539e-08-1.095689148880e+00-9.313225746155e-09
    9.678327654109e-01 2.150000000000e+02 9.712634414323e-01-7.917829809393e-09
    2.875119760278e-10 1.000000000000e+00 2.158000000000e+03 0.000000000000e+00
    2.400000000000e+00 0.000000000000e+00-1.117587089539e-08 3.200000000000e+01
    2.232000000000e+05 4.000000000000e+00
26 21  5 18 16  0  0.0 8.695200085640e-05 5.002220859751e-12 0.000000000000e+00
    1.800000000000e+01 4.225000000000e+01 5.015923219050e-09-2.651872117804e+00
    2.050772309303e-06 5.878435913473e-03 8.273869752884e-06 5.153560646057e+03
    2.304000000000e+05-6.891787052155e-08 8.231659039812e-01-1.583248376846e-07
    9.421238497771e-01 2.128437500000e+02 3.114286749286e-01-8.120695402416e-09
   -2.907263956356e-10 1.000000000000e+00 2.158000000000e+03 0.000000000000e+00
    2.400000000000e+00 0.000000000000e+00 6.984919309616e-09 1.800000000000e+01
    2.232000000000e+05 4.000000000000e+00
